{"type": "FeatureCollection", "features": [ {"type": "Feature", "properties": {"norad_id": 40697, "name": "SENTINEL-2A", "group": "resource", "lat": 73.79123298914357, "lon": -98.79232317631106, "alt_km": 781.1762638427999, "timestamp": "2025-12-03T06:58:42.898545+00:00", "meta": {"OBJECT_NAME": "SENTINEL-2A", "OBJECT_ID": "2015-028A", "EPOCH": "2025-12-02T20:25:31.685088", "MEAN_MOTION": 14.30820849, "ECCENTRICITY": 0.0001042, "INCLINATION": 98.5703, "RA_OF_ASC_NODE": 49.5245, "ARG_OF_PERICENTER": 93.7237, "MEAN_ANOMALY": 266.4065, "EPHEMERIS_TYPE": 0, "CLASSIFICATION_TYPE": "U", "NORAD_CAT_ID": 40697, "ELEMENT_SET_NO": 999, "REV_AT_EPOCH": 54565, "BSTAR": 0.00010294, "MEAN_MOTION_DOT": 2.26e-06, "MEAN_MOTION_DDOT": 0}, "tle": {"line1": "1 40697U 15028A   25336.85106117  .00000226  00000+0  10294-3 0  9998", "line2": "2 40697  98.5703  49.5245 0001042  93.7237 266.4065 14.30820849545650"}}, "geometry": {"type": "Point", "coordinates": [-98.79232317631106, 73.79123298914357]}}, {"type": "Feature", "properties": {"norad_id": 40701, "name": "GAOFEN-8", "group": "resource", "lat": 77.33373085567486, "lon": 11.93645141221471, "alt_km": 442.18679114343286, "timestamp": "2025-12-03T06:58:42.898556+00:00", "meta": {"OBJECT_NAME": "GAOFEN-8", "OBJECT_ID": "2015-030A", "EPOCH": "2025-12-02T21:10:33.566880", "MEAN_MOTION": 15.38025718, "ECCENTRICITY": 0.0011201, "INCLINATION": 97.6907, "RA_OF_ASC_NODE": 154.5459, "ARG_OF_PERICENTER": 172.9093, "MEAN_ANOMALY": 187.2311, "EPHEMERIS_TYPE": 0, "CLASSIFICATION_TYPE": "U", "NORAD_CAT_ID": 40701, "ELEMENT_SET_NO": 999, "REV_AT_EPOCH": 58119, "BSTAR": 0.00061886, "MEAN_MOTION_DOT": 0.00023155, "MEAN_MOTION_DDOT": 0}, "tle": {"line1": "1 40701U 15030A   25336.88233295  .00023155  00000+0  61886-3 0  9997", "line2": "2 40701  97.6907 154.5459 0011201 172.9093 187.2311 15.38025718581198"}}, "geometry": {"type": "Point", "coordinates": [11.93645141221471, 77.33373085567486]}}, {"type": "Feature", "properties": {"norad_id": 40718, "name": "CARBONITE 1 (CBNT-1)", "group": "resource", "lat": 59.14624558651815, "lon": -8.2640470655984, "alt_km": 615.7940664397538, "timestamp": "2025-12-03T06:58:42.898566+00:00", "meta": {"OBJECT_NAME": "CARBONITE 1 (CBNT-1)", "OBJECT_ID": "2015-032D", "EPOCH": "2025-12-02T19:06:01.971360", "MEAN_MOTION": 14.82666695, "ECCENTRICITY": 0.0013813, "INCLINATION": 97.6401, "RA_OF_ASC_NODE": 158.2781, "ARG_OF_PERICENTER": 215.1277, "MEAN_ANOMALY": 144.9027, "EPHEMERIS_TYPE": 0, "CLASSIFICATION_TYPE": "U", "NORAD_CAT_ID": 40718, "ELEMENT_SET_NO": 999, "REV_AT_EPOCH": 56023, "BSTAR": 0.00043511, "MEAN_MOTION_DOT": 3.463e-05, "MEAN_MOTION_DDOT": 0}, "tle": {"line1": "1 40718U 15032D   25336.79585615  .00003463  00000+0  43511-3 0  9998", "line2": "2 40718  97.6401 158.2781 0013813 215.1277 144.9027 14.82666695560238"}}, "geometry": {"type": "Point", "coordinates": [-8.2640470655984, 59.14624558651815]}}, {"type": "Feature", "properties": {"norad_id": 40878, "name": "YAOGAN-27", "group": "resource", "lat": 74.34476360308918, "lon": -72.1561062867699, "alt_km": 1196.2518465976173, "timestamp": "2025-12-03T06:58:42.898577+00:00", "meta": {"OBJECT_NAME": "YAOGAN-27", "OBJECT_ID": "2015-040A", "EPOCH": "2025-12-02T21:27:40.584672", "MEAN_MOTION": 13.16059676, "ECCENTRICITY": 0.0007754, "INCLINATION": 100.1004, "RA_OF_ASC_NODE": 326.9599, "ARG_OF_PERICENTER": 310.952, "MEAN_ANOMALY": 49.0922, "EPHEMERIS_TYPE": 0, "CLASSIFICATION_TYPE": "U", "NORAD_CAT_ID": 40878, "ELEMENT_SET_NO": 999, "REV_AT_EPOCH": 49184, "BSTAR": 7.5959e-05, "MEAN_MOTION_DOT": -1.3e-07, "MEAN_MOTION_DDOT": 0}, "tle": {"line1": "1 40878U 15040A   25336.89421973 -.00000013  00000+0  75959-4 0  9992", "line2": "2 40878 100.1004 326.9599 0007754 310.9520  49.0922 13.16059676491847"}}, "geometry": {"type": "Point", "coordinates": [-72.1561062867699, 74.34476360308918]}}, {"type": "Feature", "properties": {"norad_id": 40894, "name": "GAOFEN-9 01", "group": "resource", "lat": 50.48583090765677, "lon": 7.267920551140155, "alt_km": 597.4345423171771, "timestamp": "2025-12-03T06:58:42.898588+00:00", "meta": {"OBJECT_NAME": "GAOFEN-9 01", "OBJECT_ID": "2015-047A", "EPOCH": "2025-12-02T21:01:47.102304", "MEAN_MOTION": 14.82381154, "ECCENTRICITY": 0.0028955, "INCLINATION": 97.6556, "RA_OF_ASC_NODE": 16.2574, "ARG_OF_PERICENTER": 65.3586, "MEAN_ANOMALY": 295.0639, "EPHEMERIS_TYPE": 0, "CLASSIFICATION_TYPE": "U", "NORAD_CAT_ID": 40894, "ELEMENT_SET_NO": 999, "REV_AT_EPOCH": 55110, "BSTAR": 0.00020678, "MEAN_MOTION_DOT": 1.616e-05, "MEAN_MOTION_DDOT": 0}, "tle": {"line1": "1 40894U 15047A   25336.87623961  .00001616  00000+0  20678-3 0  9992", "line2": "2 40894  97.6556  16.2574 0028955  65.3586 295.0639 14.82381154551105"}}, "geometry": {"type": "Point", "coordinates": [7.267920551140155, 50.48583090765677]}}, {"type": "Feature", "properties": {"norad_id": 41026, "name": "YAOGAN-28", "group": "resource", "lat": -42.08281985041739, "lon": -71.27702125640383, "alt_km": 496.7297521843102, "timestamp": "2025-12-03T06:58:42.898598+00:00", "meta": {"OBJECT_NAME": "YAOGAN-28", "OBJECT_ID": "2015-064A", "EPOCH": "2025-12-02T20:33:07.339680", "MEAN_MOTION": 15.2408145, "ECCENTRICITY": 0.00119, "INCLINATION": 97.2796, "RA_OF_ASC_NODE": 114.9298, "ARG_OF_PERICENTER": 158.9045, "MEAN_ANOMALY": 201.2686, "EPHEMERIS_TYPE": 0, "CLASSIFICATION_TYPE": "U", "NORAD_CAT_ID": 41026, "ELEMENT_SET_NO": 999, "REV_AT_EPOCH": 56074, "BSTAR": 0.00050601, "MEAN_MOTION_DOT": 0.00012249, "MEAN_MOTION_DDOT": 0}, "tle": {"line1": "1 41026U 15064A   25336.85633495  .00012249  00000+0  50601-3 0  9993", "line2": "2 41026  97.2796 114.9298 0011900 158.9045 201.2686 15.24081450560749"}}, "geometry": {"type": "Point", "coordinates": [-71.27702125640383, -42.08281985041739]}}, {"type": "Feature", "properties": {"norad_id": 41038, "name": "YAOGAN-29", "group": "resource", "lat": -74.95613623464615, "lon": 32.084836499503574, "alt_km": 627.5650389574339, "timestamp": "2025-12-03T06:58:42.898608+00:00", "meta": {"OBJECT_NAME": "YAOGAN-29", "OBJECT_ID": "2015-069A", "EPOCH": "2025-12-02T19:59:24.315648", "MEAN_MOTION": 14.82864522, "ECCENTRICITY": 8.05e-05, "INCLINATION": 98.0229, "RA_OF_ASC_NODE": 359.9724, "ARG_OF_PERICENTER": 9.2104, "MEAN_ANOMALY": 350.9124, "EPHEMERIS_TYPE": 0, "CLASSIFICATION_TYPE": "U", "NORAD_CAT_ID": 41038, "ELEMENT_SET_NO": 999, "REV_AT_EPOCH": 54152, "BSTAR": 9.0635e-05, "MEAN_MOTION_DOT": 6.8e-06, "MEAN_MOTION_DDOT": 0}, "tle": {"line1": "1 41038U 15069A   25336.83292032  .00000680  00000+0  90635-4 0  9995", "line2": "2 41038  98.0229 359.9724 0000805   9.2104 350.9124 14.82864522541529"}}, "geometry": {"type": "Point", "coordinates": [32.084836499503574, -74.95613623464615]}}, {"type": "Feature", "properties": {"norad_id": 41167, "name": "KENT RIDGE 1", "group": "resource", "lat": 12.17206532576683, "lon": 47.487064515093714, "alt_km": 500.5086904877844, "timestamp": "2025-12-03T06:58:42.898619+00:00", "meta": {"OBJECT_NAME": "KENT RIDGE 1", "OBJECT_ID": "2015-077B", "EPOCH": "2025-12-02T05:15:28.609632", "MEAN_MOTION": 15.21503241, "ECCENTRICITY": 0.0008704, "INCLINATION": 14.9806, "RA_OF_ASC_NODE": 289.1971, "ARG_OF_PERICENTER": 341.7782, "MEAN_ANOMALY": 18.2228, "EPHEMERIS_TYPE": 0, "CLASSIFICATION_TYPE": "U", "NORAD_CAT_ID": 41167, "ELEMENT_SET_NO": 999, "REV_AT_EPOCH": 55103, "BSTAR": 0.00021780995, "MEAN_MOTION_DOT": 5.81e-05, "MEAN_MOTION_DDOT": 0}, "tle": {"line1": "1 41167U 15077B   25336.21908113  .00005810  00000+0  21781-3 0  9998", "line2": "2 41167  14.9806 289.1971 0008704 341.7782  18.2228 15.21503241551038"}}, "geometry": {"type": "Point", "coordinates": [47.487064515093714, 12.17206532576683]}}, {"type": "Feature", "properties": {"norad_id": 41194, "name": "GAOFEN-4", "group": "resource", "lat": -0.06954992800518946, "lon": -77.23993735882611, "alt_km": 35787.70608541394, "timestamp": "2025-12-03T06:58:42.898632+00:00", "meta": {"OBJECT_NAME": "GAOFEN-4", "OBJECT_ID": "2015-083A", "EPOCH": "2025-12-02T19:57:21.555072", "MEAN_MOTION": 1.00273925, "ECCENTRICITY": 0.0003753, "INCLINATION": 0.143, "RA_OF_ASC_NODE": 80.6627, "ARG_OF_PERICENTER": 103.97, "MEAN_ANOMALY": 292.3157, "EPHEMERIS_TYPE": 0, "CLASSIFICATION_TYPE": "U", "NORAD_CAT_ID": 41194, "ELEMENT_SET_NO": 999, "REV_AT_EPOCH": 3656, "BSTAR": 0, "MEAN_MOTION_DOT": -3.15e-06, "MEAN_MOTION_DDOT": 0}, "tle": {"line1": "1 41194U 15083A   25336.83149948 -.00000315  00000+0  00000+0 0  9999", "line2": "2 41194   0.1430  80.6627 0003753 103.9700 292.3157  1.00273925 36564"}}, "geometry": {"type": "Point", "coordinates": [-77.23993735882611, -0.06954992800518946]}}, {"type": "Feature", "properties": {"norad_id": 41240, "name": "JASON-3", "group": "resource", "lat": 62.22691753334427, "lon": -124.70956495282554, "alt_km": 1309.341206523156, "timestamp": "2025-12-03T06:58:42.898643+00:00", "meta": {"OBJECT_NAME": "JASON-3", "OBJECT_ID": "2016-002A", "EPOCH": "2025-12-02T19:24:10.952640", "MEAN_MOTION": 12.8762594, "ECCENTRICITY": 0.0007147, "INCLINATION": 66.0392, "RA_OF_ASC_NODE": 178.7041, "ARG_OF_PERICENTER": 270.2564, "MEAN_ANOMALY": 89.7636, "EPHEMERIS_TYPE": 0, "CLASSIFICATION_TYPE": "U", "NORAD_CAT_ID": 41240, "ELEMENT_SET_NO": 999, "REV_AT_EPOCH": 46196, "BSTAR": 0.00019602, "MEAN_MOTION_DOT": -1.3e-07, "MEAN_MOTION_DDOT": 0}, "tle": {"line1": "1 41240U 16002A   25336.80846010 -.00000013  00000+0  19602-3 0  9991", "line2": "2 41240  66.0392 178.7041 0007147 270.2564  89.7636 12.87625940461961"}}, "geometry": {"type": "Point", "coordinates": [-124.70956495282554, 62.22691753334427]}}]}